[{"OBJECT_NAME":"TIANQI-37","OBJECT_ID":"2026-010A","EPOCH":"2026-03-09T06:43:44.037984","MEAN_MOTION":13.99128846,"ECCENTRICITY":0.00128306,"INCLINATION":44.9813,"RA_OF_ASC_NODE":166.2502,"ARG_OF_PERICENTER":214.8305,"MEAN_ANOMALY":145.1688,"EPHEMERIS_TYPE":0,"CLASSIFICATION_TYPE":"U","NORAD_CAT_ID":67476,"ELEMENT_SET_NO":999,"REV_AT_EPOCH":740,"BSTAR":0.00025153043,"MEAN_MOTION_DOT":2.39e-6,"MEAN_MOTION_DDOT":0},{"OBJECT_NAME":"CZ-4B DEB","OBJECT_ID":"2002-024H","EPOCH":"2026-03-09T22:22:50.809728","MEAN_MOTION":14.05056145,"ECCENTRICITY":0.01276217,"INCLINATION":99.0686,"RA_OF_ASC_NODE":120.3962,"ARG_OF_PERICENTER":273.5464,"MEAN_ANOMALY":85.1115,"EPHEMERIS_TYPE":0,"CLASSIFICATION_TYPE":"U","NORAD_CAT_ID":34223,"ELEMENT_SET_NO":999,"REV_AT_EPOCH":19740,"BSTAR":0.00045794059,"MEAN_MOTION_DOT":7.48e-6,"MEAN_MOTION_DDOT":0}]
